[{"OBJECT_NAME":"HERMES-3","OBJECT_ID":"2025-052BR","EPOCH":"2026-03-09T22:30:01.073952","MEAN_MOTION":15.30039786,"ECCENTRICITY":0.00079928,"INCLINATION":97.3987,"RA_OF_ASC_NODE":324.6131,"ARG_OF_PERICENTER":112.9583,"MEAN_ANOMALY":247.2502,"EPHEMERIS_TYPE":0,"CLASSIFICATION_TYPE":"U","NORAD_CAT_ID":63835,"ELEMENT_SET_NO":999,"REV_AT_EPOCH":5486,"BSTAR":0.0006995793,"MEAN_MOTION_DOT":0.00020316,"MEAN_MOTION_DDOT":0},{"OBJECT_NAME":"STARLINK-35509","OBJECT_ID":"2025-243Y","EPOCH":"2026-03-09T19:22:15.415968","MEAN_MOTION":15.30205868,"ECCENTRICITY":9.629e-5,"INCLINATION":53.1599,"RA_OF_ASC_NODE":244.5686,"ARG_OF_PERICENTER":64.9004,"MEAN_ANOMALY":295.2097,"EPHEMERIS_TYPE":0,"CLASSIFICATION_TYPE":"U","NORAD_CAT_ID":66199,"ELEMENT_SET_NO":999,"REV_AT_EPOCH":2067,"BSTAR":0.00094307228,"MEAN_MOTION_DOT":0.00027681,"MEAN_MOTION_DDOT":0}]
